NORAD_CAT_ID,OBJECT_NAME,OBJECT_TYPE,EPOCH,MEAN_MOTION,ECCENTRICITY,INCLINATION,RA_OF_ASC_NODE,ARG_OF_PERICENTER,MEAN_ANOMALY,BSTAR,MEAN_MOTION_DOT,MEAN_MOTION_DDOT,TLE_LINE0,TLE_LINE1,TLE_LINE2,SEMIMAJOR_AXIS,PERIOD,APOGEE,PERIGEE,DECAYED
53160.0,STARLINK-4096,PAYLOAD,2022-09-30 22:00:00,15.09857506,0.0001248,53.2165,41.5019,78.0897,151.8306,-0.063985,-0.00964844,0.0,0 STARLINK-4096,1 53160U 22083AE  22273.91667824 -.00964844  00000-0 -63985-1 0  9998,2 53160  53.2165  41.5019 0001248  78.0897 151.8306 15.09857506  1307,6914.772,95.373,537.5,535.774,0.0
53160.0,STARLINK-4096,PAYLOAD,2022-10-01 06:00:00,15.09073871,0.000124,53.2172,40.001,85.0814,157.2443,-0.0219159999999999,-0.00335311,0.0,0 STARLINK-4096,1 53160U 22083AE  22274.25001157 -.00335311  00000-0 -21916-1 0  9996,2 53160  53.2172  40.0010 0001240  85.0814 157.2443 15.09073871 12454,6917.166,95.423,539.888,538.173,0.0
53160.0,STARLINK-4096,PAYLOAD,2022-10-01 14:00:01,15.08847007,0.0001379,53.213,38.5137,70.0871,183.8245,-0.00013025,-2.361e-05,0.0,0 STARLINK-4096,1 53160U 22083AE  22274.58334491 -.00002361  00000-0 -13025-3 0  9992,2 53160  53.2130  38.5137 0001379  70.0871 183.8245 15.08847007  1306,6917.859,95.437,540.678,538.77,0.0
53160.0,STARLINK-4096,PAYLOAD,2022-10-01 22:00:00,15.0886354,0.0001374,53.2129,37.0171,65.6056,199.9041,-0.00010493,-1.959e-05,0.0,0 STARLINK-4096,1 53160U 22083AE  22274.91667824 -.00001959  00000-0 -10493-3 0  9996,2 53160  53.2129  37.0171 0001374  65.6056 199.9041 15.08863540 12557,6917.808000000001,95.436,540.624,538.7230000000002,0.0
53160.0,STARLINK-4096,PAYLOAD,2022-10-02 14:00:01,15.08868545,0.0001486,53.213,34.024,67.2259,221.5281,-0.0048928,-0.00077381,0.0,0 STARLINK-4096,1 53160U 22083AE  22275.58334491 -.00077381  00000-0 -48928-2 0  9996,2 53160  53.2130  34.0240 0001486  67.2259 221.5281 15.08868545  1309,6917.793000000002,95.436,540.686,538.63,0.0
53160.0,STARLINK-4096,PAYLOAD,2022-10-02 22:00:00,15.08827069,0.0001383,53.2131,32.5273,61.0831,239.2648,-0.0001121,-2.071e-05,0.0,0 STARLINK-4096,1 53160U 22083AE  22275.91667824 -.00002071  00000-0 -11210-3 0  9991,2 53160  53.2131  32.5273 0001383  61.0831 239.2648 15.08827069 12708,6917.92,95.438,540.742,538.828,0.0
53160.0,STARLINK-4096,PAYLOAD,2022-10-03 14:00:01,15.08860114,0.0001488,53.2134,29.5344,61.9503,261.5756,0.0009057,0.00014164,0.0,0 STARLINK-4096,1 53160U 22083AE  22276.58334491  .00014164  00000-0  90570-3 0  9996,2 53160  53.2134  29.5344 0001488  61.9503 261.5756 15.08860114 12804,6917.819,95.436,540.7130000000002,538.655,0.0
53160.0,STARLINK-4096,PAYLOAD,2022-10-03 22:00:00,15.08907876,0.0001496999999999,53.2135,28.0375,59.2686,275.8751,-0.0030851,-0.00049144,0.0,0 STARLINK-4096,1 53160U 22083AE  22276.91667824 -.00049144  00000-0 -30851-2 0  9995,2 53160  53.2135  28.0375 0001497  59.2686 275.8751 15.08907876  1308,6917.6730000000025,95.433,540.5740000000002,538.502,0.0
53160.0,STARLINK-4096,PAYLOAD,2022-10-04 14:00:01,15.08832713,0.0001628,53.2139,25.0447,61.4057,296.9646,0.00090844,0.00014197,0.0,0 STARLINK-4096,1 53160U 22083AE  22277.58334491  .00014197  00000-0  90844-3 0  9997,2 53160  53.2139  25.0447 0001628  61.4057 296.9646 15.08832713  1306,6917.903,95.438,540.894,538.641,0.0
53160.0,STARLINK-4096,PAYLOAD,2022-10-04 22:00:00,15.08864841,0.0001537,53.2143,23.5469,56.9353,313.0182,-0.0031215999999999,-0.0004966,0.0,0 STARLINK-4096,1 53160U 22083AE  22277.91667824 -.00049660  00000-0 -31216-2 0  9995,2 53160  53.2143  23.5469 0001537  56.9353 313.0182 15.08864841  1308,6917.804,95.436,540.7330000000002,538.606,0.0
53160.0,STARLINK-4096,PAYLOAD,2022-10-05 14:00:01,15.08849135,0.0001607,53.2143,20.5551,59.7856,333.4386,-0.00083363,-0.00013534,0.0,0 STARLINK-4096,1 53160U 22083AE  22278.58335648 -.00013534  00000-0 -83363-3 0  9997,2 53160  53.2143  20.5551 0001607  59.7856 333.4386 15.08849135  1305,6917.852,95.437,540.8290000000002,538.606,0.0
53160.0,STARLINK-4096,PAYLOAD,2022-10-05 22:00:00,15.08861154,0.0001544,53.2142,19.058,57.8044,346.9556,-0.0037643999999999,-0.00059736,0.0,0 STARLINK-4096,1 53160U 22083AE  22278.91667824 -.00059736  00000-0 -37644-2 0  9992,2 53160  53.2142  19.0580 0001544  57.8044 346.9556 15.08861154  1300,6917.816,95.436,540.749,538.613,0.0
53160.0,STARLINK-4096,PAYLOAD,2022-10-06 14:00:01,15.08857264,0.000152,53.2171,16.0613,53.7646,14.1578,-0.0020537,-0.00032839,0.0,0 STARLINK-4096,1 53160U 22083AE  22279.58334491 -.00032839  00000-0 -20537-2 0  9995,2 53160  53.2171  16.0613 0001520  53.7646  14.1578 15.08857264  1308,6917.828,95.436,540.744,538.641,0.0
53160.0,STARLINK-4096,PAYLOAD,2022-10-06 22:42:55,15.08872877,0.0001465,53.2142,14.4348,59.8809,181.5762,-0.0029521,-0.00047006,0.0,0 STARLINK-4096,1 53160U 22083AE  22279.94646991 -.00047006  00000-0 -29521-2 0  9990,2 53160  53.2142  14.4348 0001465  59.8809 181.5762 15.08872877  1300,6917.78,95.435,540.658,538.631,0.0
53160.0,STARLINK-4096,PAYLOAD,2022-10-07 14:00:01,15.08833733,0.0001669,53.2142,11.5768,61.0955,41.6722,0.00080598,0.0001256,0.0,0 STARLINK-4096,1 53160U 22083AE  22280.58334491  .00012560  00000-0  80598-3 0  9998,2 53160  53.2142  11.5768 0001669  61.0955  41.6722 15.08833733  1307,6917.9,95.438,540.919,538.61,0.0
53160.0,STARLINK-4096,PAYLOAD,2022-10-07 22:00:00,15.08871457,0.0001494,53.2139,10.0795,60.5886,53.7713,-0.0057548,-0.00090801,0.0,0 STARLINK-4096,1 53160U 22083AE  22280.91667824 -.00090801  00000-0 -57548-2 0  9998,2 53160  53.2139  10.0795 0001494  60.5886  53.7713 15.08871457  1309,6917.784000000002,95.436,540.683,538.616,0.0
53160.0,STARLINK-4096,PAYLOAD,2022-10-08 06:00:00,15.088367800000002,0.0001395,53.2176,8.5766,78.8559,47.0394,4.4801000000000014e-05,4.25e-06,0.0,0 STARLINK-4096,1 53160U 22083AE  22281.25001157  .00000425  00000-0  44801-4 0  9998,2 53160  53.2176   8.5766 0001395  78.8559  47.0394 15.08836780 13516,6917.89,95.438,540.72,538.79,0.0
53160.0,STARLINK-4096,PAYLOAD,2022-10-08 14:00:01,15.0882887,0.0001525,53.2139,7.0877,56.5091,81.014,0.00066377,0.00010289,0.0,0 STARLINK-4096,1 53160U 22083AE  22281.58334491  .00010289  00000-0  66377-3 0  9994,2 53160  53.2139   7.0877 0001525  56.5091  81.0140 15.08828870  1303,6917.9140000000025,95.438,540.8340000000002,538.724,0.0
53160.0,STARLINK-4096,PAYLOAD,2022-10-08 22:00:00,15.088568,0.0001455,53.2136,5.5903,58.2002,90.9121,-0.0036069,-0.00057262,0.0,0 STARLINK-4096,1 53160U 22083AE  22281.91667824 -.00057262  00000-0 -36069-2 0  9998,2 53160  53.2136   5.5903 0001455  58.2002  90.9121 15.08856800  1308,6917.829000000002,95.436,540.701,538.687,0.0
53160.0,STARLINK-4096,PAYLOAD,2022-10-09 14:00:01,15.08844457,0.0001545,53.2137,2.5986,53.8445,118.4437,0.00073429,0.00011419,0.0,0 STARLINK-4096,1 53160U 22083AE  22282.58334491  .00011419  00000-0  73429-3 0  9997,2 53160  53.2137   2.5986 0001545  53.8445 118.4437 15.08844457  1300,6917.8669999999975,95.437,540.8009999999998,538.663,0.0
53160.0,STARLINK-4096,PAYLOAD,2022-10-09 22:00:00,15.0886363,0.0001475,53.2136,1.1009,54.2093,129.6851,-0.0030394,-0.00048367,0.0,0 STARLINK-4096,1 53160U 22083AE  22282.91667824 -.00048367  00000-0 -30394-2 0  9990,2 53160  53.2136   1.1009 0001475  54.2093 129.6851 15.08863630  1304,6917.808000000001,95.436,540.694,538.653,0.0
53160.0,STARLINK-4096,PAYLOAD,2022-10-10 06:00:00,15.08842851,0.0001587,53.2142,359.6032,61.4037,134.0911,-0.00033794,-5.663e-05,0.0,0 STARLINK-4096,1 53160U 22083AE  22283.25001157 -.00005663  00000-0 -33794-3 0  9999,2 53160  53.2142 359.6032 0001587  61.4037 134.0911 15.08842851 13818,6917.871999999999,95.437,540.835,538.639,0.0
53160.0,STARLINK-4096,PAYLOAD,2022-10-10 14:00:01,15.08889223,0.0001659,53.2155,358.1069,56.969,150.1137,-0.01007,-0.00157287,0.0,0 STARLINK-4096,1 53160U 22083AE  22283.58334491 -.00157287  00000-0 -10070-1 0  9995,2 53160  53.2155 358.1069 0001659  56.9690 150.1137 15.08889223  1304,6917.73,95.434,540.743,538.447,0.0
53160.0,STARLINK-4096,PAYLOAD,2022-10-10 22:00:01,15.08963104,0.0001674,53.2154,356.6089,53.8896,164.8881,-0.022584,-0.00344071,0.0,0 STARLINK-4096,1 53160U 22083AE  22283.91668981 -.00344071  00000-0 -22584-1 0  9998,2 53160  53.2154 356.6089 0001674  53.8896 164.8881 15.08963104  1308,6917.504,95.43,540.5269999999998,538.211,0.0
53160.0,STARLINK-4096,PAYLOAD,2022-10-11 14:00:01,15.08751094,0.0001575,53.217,353.6156,45.2821,196.5773,0.0084846,0.00137049,0.0,0 STARLINK-4096,1 53160U 22083AE  22284.58334491  .00137049  00000-0  84846-2 0  9991,2 53160  53.2170 353.6156 0001575  45.2821 196.5773 15.08751094 14018,6918.151999999999,95.443,541.107,538.928,0.0
53160.0,STARLINK-4096,PAYLOAD,2022-10-11 22:00:00,15.08838343,0.0001446,53.2175,352.1169,43.7178,209.6915,-0.00018923,-3.298e-05,0.0,0 STARLINK-4096,1 53160U 22083AE  22284.91667824 -.00003298  00000-0 -18923-3 0  9991,2 53160  53.2175 352.1169 0001446  43.7178 209.6915 15.08838343 14068,6917.885,95.438,540.751,538.75,0.0
53160.0,STARLINK-4096,PAYLOAD,2022-10-12 14:00:01,15.08818812,0.0001689,53.2157,349.1286,53.2766,223.2993,0.0036426,0.00058129,0.0,0 STARLINK-4096,1 53160U 22083AE  22285.58334491  .00058129  00000-0  36426-2 0  9994,2 53160  53.2157 349.1286 0001689  53.2766 223.2993 15.08818812  1302,6917.945,95.439,540.979,538.6419999999998,0.0
53160.0,STARLINK-4096,PAYLOAD,2022-10-12 22:00:00,15.08862458,0.0001398,53.2169,347.6289,61.289,226.8842,-0.0025743,-0.0004105,0.0,0 STARLINK-4096,1 53160U 22083AE  22285.91667824 -.00041050  00000-0 -25743-2 0  9997,2 53160  53.2169 347.6289 0001398  61.2890 226.8842 15.08862458  1302,6917.812,95.436,540.644,538.71,0.0
53160.0,STARLINK-4096,PAYLOAD,2022-10-13 06:00:00,15.08847677,0.0001526,53.2154,346.1336,57.9396,241.8247,-4.547e-05,-1.012e-05,0.0,0 STARLINK-4096,1 53160U 22083AE  22286.25001157 -.00001012  00000-0 -45470-4 0  9991,2 53160  53.2154 346.1336 0001526  57.9396 241.8247 15.08847677 14260,6917.857,95.437,540.778,538.6659999999998,0.0
